IRIDIUM 7               
1 24793U 97020B   25331.86041839  .00000522  00000+0  17283-3 0  9998
2 24793  86.3941 108.3373 0001765  87.1278 273.0121 14.36085266495381
IRIDIUM 5               
1 24795U 97020D   25331.81033659  .00005136  00000+0  40635-3 0  9999
2 24795  86.3900   8.1729 0102290 270.1795  88.7714 14.96294168509916
IRIDIUM 4               
1 24796U 97020E   25331.88048089  .00000541  00000+0  17588-3 0  9996
2 24796  86.3938 105.0956 0002000  89.3159 270.8267 14.36990292495971
IRIDIUM 914             
1 24836U 97030A   25331.84142550  .00000599  00000+0  18022-3 0  9993
2 24836  86.3917 113.2334 0003244  68.7506 291.4040 14.41043920630693
IRIDIUM 16              
1 24841U 97030F   25331.90857495  .00000583  00000+0  18304-3 0  9993
2 24841  86.4023 136.5489 0000787 176.1065 184.0140 14.38863754490547
IRIDIUM 911             
1 24842U 97030G   25331.85630875  .00000735  00000+0  19319-3 0  9995
2 24842  86.4445 135.1610 0012051 272.4769  87.5055 14.47861443498762
IRIDIUM 17              
1 24870U 97034B   25331.78652978  .00000481  00000+0  15257-3 0  9995
2 24870  86.3973 166.0211 0002118 134.4988 225.6384 14.38002332487099
IRIDIUM 920             
1 24871U 97034C   25331.89506991  .00000568  00000+0  16806-3 0  9998
2 24871  86.3970 144.8391 0009470 260.0396  99.9735 14.41704934490162
